CCSDS_OMM_VERS = 2.0
CREATION_DATE  = 
ORIGINATOR     = 

OBJECT_NAME    = SOYUZ-MS 28
OBJECT_ID      = 2025-275A
CENTER_NAME    = EARTH
REF_FRAME      = TEME
TIME_SYSTEM    = UTC
MEAN_ELEMENT_THEORY = SGP/SGP4

EPOCH          = 2026-01-13T09:39:35.169696
MEAN_MOTION    = 15.49273572
ECCENTRICITY   = .0007762
INCLINATION    = 51.6332
RA_OF_ASC_NODE = 345.7221
ARG_OF_PERICENTER = 13.3130
MEAN_ANOMALY   = 346.8062

EPHEMERIS_TYPE = 0
CLASSIFICATION_TYPE = U
NORAD_CAT_ID   = 66664
ELEMENT_SET_NO = 999
REV_AT_EPOCH   = 128
BSTAR          = .1728265E-3
MEAN_MOTION_DOT = .9179E-4
MEAN_MOTION_DDOT = 0

CCSDS_OMM_VERS = 2.0
CREATION_DATE  = 
ORIGINATOR     = 

OBJECT_NAME    = 1998-067XS
OBJECT_ID      = 1998-067XS
CENTER_NAME    = EARTH
REF_FRAME      = TEME
TIME_SYSTEM    = UTC
MEAN_ELEMENT_THEORY = SGP/SGP4

EPOCH          = 2026-01-13T14:42:38.248416
MEAN_MOTION    = 15.52427531
ECCENTRICITY   = .00022284
INCLINATION    = 51.6319
RA_OF_ASC_NODE = 344.1293
ARG_OF_PERICENTER = 8.8340
MEAN_ANOMALY   = 351.2689

EPHEMERIS_TYPE = 0
CLASSIFICATION_TYPE = U
NORAD_CAT_ID   = 66906
ELEMENT_SET_NO = 999
REV_AT_EPOCH   = 656
BSTAR          = .29158564E-3
MEAN_MOTION_DOT = .17719E-3
MEAN_MOTION_DDOT = 0

CCSDS_OMM_VERS = 2.0
CREATION_DATE  = 
ORIGINATOR     = 

OBJECT_NAME    = 1998-067XT
OBJECT_ID      = 1998-067XT
CENTER_NAME    = EARTH
REF_FRAME      = TEME
TIME_SYSTEM    = UTC
MEAN_ELEMENT_THEORY = SGP/SGP4

EPOCH          = 2026-01-13T15:05:57.472224
MEAN_MOTION    = 15.56229316
ECCENTRICITY   = .00036916
INCLINATION    = 51.6314
RA_OF_ASC_NODE = 343.4878
ARG_OF_PERICENTER = 54.3923
MEAN_ANOMALY   = 305.7412

EPHEMERIS_TYPE = 0
CLASSIFICATION_TYPE = U
NORAD_CAT_ID   = 66907
ELEMENT_SET_NO = 999
REV_AT_EPOCH   = 657
BSTAR          = .74840972E-3
MEAN_MOTION_DOT = .53401E-3
MEAN_MOTION_DDOT = 0

CCSDS_OMM_VERS = 2.0
CREATION_DATE  = 
ORIGINATOR     = 

OBJECT_NAME    = 1998-067XU
OBJECT_ID      = 1998-067XU
CENTER_NAME    = EARTH
REF_FRAME      = TEME
TIME_SYSTEM    = UTC
MEAN_ELEMENT_THEORY = SGP/SGP4

EPOCH          = 2026-01-13T07:22:14.248704
MEAN_MOTION    = 15.56166729
ECCENTRICITY   = .00036098
INCLINATION    = 51.6301
RA_OF_ASC_NODE = 345.0854
ARG_OF_PERICENTER = 49.5232
MEAN_ANOMALY   = 310.6074

EPHEMERIS_TYPE = 0
CLASSIFICATION_TYPE = U
NORAD_CAT_ID   = 66908
ELEMENT_SET_NO = 999
REV_AT_EPOCH   = 652
BSTAR          = .92787297E-3
MEAN_MOTION_DOT = .66277E-3
MEAN_MOTION_DDOT = 0

CCSDS_OMM_VERS = 2.0
CREATION_DATE  = 
ORIGINATOR     = 

OBJECT_NAME    = SILVERSAT
OBJECT_ID      = 1998-067XV
CENTER_NAME    = EARTH
REF_FRAME      = TEME
TIME_SYSTEM    = UTC
MEAN_ELEMENT_THEORY = SGP/SGP4

EPOCH          = 2026-01-13T07:10:58.694016
MEAN_MOTION    = 15.56861412
ECCENTRICITY   = .00038655
INCLINATION    = 51.6313
RA_OF_ASC_NODE = 345.0339
ARG_OF_PERICENTER = 59.9935
MEAN_ANOMALY   = 300.1440

EPHEMERIS_TYPE = 0
CLASSIFICATION_TYPE = U
NORAD_CAT_ID   = 66909
ELEMENT_SET_NO = 999
REV_AT_EPOCH   = 652
BSTAR          = .10009109E-2
MEAN_MOTION_DOT = .73481E-3
MEAN_MOTION_DDOT = 0

CCSDS_OMM_VERS = 2.0
CREATION_DATE  = 
ORIGINATOR     = 

OBJECT_NAME    = 1998-067XW
OBJECT_ID      = 1998-067XW
CENTER_NAME    = EARTH
REF_FRAME      = TEME
TIME_SYSTEM    = UTC
MEAN_ELEMENT_THEORY = SGP/SGP4

EPOCH          = 2026-01-13T07:12:37.311840
MEAN_MOTION    = 15.56501876
ECCENTRICITY   = .00026291
INCLINATION    = 51.6294
RA_OF_ASC_NODE = 345.0399
ARG_OF_PERICENTER = 34.5838
MEAN_ANOMALY   = 325.5324

EPHEMERIS_TYPE = 0
CLASSIFICATION_TYPE = U
NORAD_CAT_ID   = 66910
ELEMENT_SET_NO = 999
REV_AT_EPOCH   = 652
BSTAR          = .93026412E-3
MEAN_MOTION_DOT = .67286E-3
MEAN_MOTION_DDOT = 0

CCSDS_OMM_VERS = 2.0
CREATION_DATE  = 
ORIGINATOR     = 

OBJECT_NAME    = 1998-067XX
OBJECT_ID      = 1998-067XX
CENTER_NAME    = EARTH
REF_FRAME      = TEME
TIME_SYSTEM    = UTC
MEAN_ELEMENT_THEORY = SGP/SGP4

EPOCH          = 2026-01-13T14:34:16.496832
MEAN_MOTION    = 15.57654669
ECCENTRICITY   = .00027255
INCLINATION    = 51.6293
RA_OF_ASC_NODE = 343.3392
ARG_OF_PERICENTER = 53.7358
MEAN_ANOMALY   = 306.3886

EPHEMERIS_TYPE = 0
CLASSIFICATION_TYPE = U
NORAD_CAT_ID   = 66911
ELEMENT_SET_NO = 999
REV_AT_EPOCH   = 656
BSTAR          = .9084754E-3
MEAN_MOTION_DOT = .68614E-3
MEAN_MOTION_DDOT = 0

CCSDS_OMM_VERS = 2.0
CREATION_DATE  = 
ORIGINATOR     = 

OBJECT_NAME    = 1998-067XY
OBJECT_ID      = 1998-067XY
CENTER_NAME    = EARTH
REF_FRAME      = TEME
TIME_SYSTEM    = UTC
MEAN_ELEMENT_THEORY = SGP/SGP4

EPOCH          = 2026-01-13T09:21:06.021792
MEAN_MOTION    = 15.54808209
ECCENTRICITY   = .00034218
INCLINATION    = 51.6311
RA_OF_ASC_NODE = 344.8874
ARG_OF_PERICENTER = 37.4074
MEAN_ANOMALY   = 322.7154

EPHEMERIS_TYPE = 0
CLASSIFICATION_TYPE = U
NORAD_CAT_ID   = 66912
ELEMENT_SET_NO = 999
REV_AT_EPOCH   = 652
BSTAR          = .73717719E-3
MEAN_MOTION_DOT = .49866E-3
MEAN_MOTION_DDOT = 0

